NORAD_CAT_ID,OBJECT_NAME,OBJECT_TYPE,EPOCH,MEAN_MOTION,ECCENTRICITY,INCLINATION,RA_OF_ASC_NODE,ARG_OF_PERICENTER,MEAN_ANOMALY,BSTAR,MEAN_MOTION_DOT,MEAN_MOTION_DDOT,TLE_LINE0,TLE_LINE1,TLE_LINE2,SEMIMAJOR_AXIS,PERIOD,APOGEE,PERIGEE,DECAYED
55774.0,STARLINK-5812,PAYLOAD,2024-02-23 20:16:51,14.98335265,0.0002741,70.0001,302.4332,271.1725,88.912,-0.00011192,-1.428e-05,0.0,0 STARLINK-5812,1 55774U 23028AK  24054.84504234 -.00001428  00000-0 -11192-3 0  9992,2 55774  70.0001 302.4332 0002741 271.1725  88.9120 14.98335265 54962,6950.177,96.107,573.947,570.137,0.0
55774.0,STARLINK-5812,PAYLOAD,2024-02-23 21:52:59,14.98334953,0.0002747,69.9996,302.2644,269.1232,90.9612,-0.00013414,-1.693e-05,0.0,0 STARLINK-5812,1 55774U 23028AK  24054.91180270 -.00001693  00000-0 -13414-3 0  9993,2 55774  69.9996 302.2644 0002747 269.1232  90.9612 14.98334953 54975,6950.178,96.107,573.952,570.133,0.0
55774.0,STARLINK-5812,PAYLOAD,2024-02-24 02:41:24,14.98290914,0.0002431,69.9999,301.7595,269.9571,90.1309,0.00056905,6.696e-05,0.0,0 STARLINK-5812,1 55774U 23028AK  24055.11209308  .00006696  00000-0  56905-3 0  9998,2 55774  69.9999 301.7595 0002431 269.9571  90.1309 14.98290914 55009,6950.314,96.11,573.868,570.489,0.0
55774.0,STARLINK-5812,PAYLOAD,2024-02-24 09:05:56,14.9833451,0.0002698,69.9998,301.0863,271.4548,88.6302,-0.00010197,-1.31e-05,0.0,0 STARLINK-5812,1 55774U 23028AK  24055.37912093 -.00001310  00000-0 -10197-3 0  9991,2 55774  69.9998 301.0863 0002698 271.4548  88.6302 14.98334510 55046,6950.179,96.107,573.919,570.169,0.0
55774.0,STARLINK-5812,PAYLOAD,2024-02-25 09:07:56,14.98338554,0.0002999,69.9987,298.5607,271.0965,88.9851,-3.12e-05,-4.65e-06,0.0,0 STARLINK-5812,1 55774U 23028AK  24056.38051175 -.00000465  00000-0 -31200-4 0  9997,2 55774  69.9987 298.5607 0002999 271.0965  88.9851 14.98338554 55193,6950.166,96.106,574.116,569.947,0.0
55774.0,STARLINK-5812,PAYLOAD,2024-02-25 21:57:01,14.9832683,0.0002921,69.999,297.2137,271.7999,88.2825,9.8828e-05,1.086e-05,0.0,0 STARLINK-5812,1 55774U 23028AK  24056.91459502  .00001086  00000-0  98828-4 0  9999,2 55774  69.9990 297.2137 0002921 271.7999  88.2825 14.98326830 55277,6950.203,96.107,574.098,570.038,0.0
55774.0,STARLINK-5812,PAYLOAD,2024-02-26 01:09:16,14.98342281,0.0002855,69.9992,296.8778,269.4338,90.6493,-9.7267e-05,-1.254e-05,0.0,0 STARLINK-5812,1 55774U 23028AK  24057.04811001 -.00001254  00000-0 -97267-4 0  9995,2 55774  69.9992 296.8778 0002855 269.4338  90.6493 14.98342281 55290,6950.155,96.106,574.004,570.036,0.0
55774.0,STARLINK-5812,PAYLOAD,2024-02-26 18:46:46,14.98327076,0.000268,69.9996,295.0276,266.0934,93.9919,-7.5363e-05,-9.92e-06,0.0,0 STARLINK-5812,1 55774U 23028AK  24057.78247964 -.00000992  00000-0 -75363-4 0  9998,2 55774  69.9996 295.0276 0002680 266.0934  93.9919 14.98327076 55406,6950.202,96.107,573.93,570.204,0.0
55774.0,STARLINK-5812,PAYLOAD,2024-02-26 21:59:02,14.98327302,0.0002679,69.9994,294.6909,265.7516,94.3337,-9.4803e-05,-1.224e-05,0.0,0 STARLINK-5812,1 55774U 23028AK  24057.91600040 -.00001224  00000-0 -94803-4 0  9990,2 55774  69.9994 294.6909 0002679 265.7516  94.3337 14.98327302 55425,6950.201,96.107,573.928,570.204,0.0
55774.0,STARLINK-5812,PAYLOAD,2024-02-27 09:11:58,14.9832774,0.0002777,69.999,293.5115,269.217,90.8671,-5.7788e-05,-7.82e-06,0.0,0 STARLINK-5812,1 55774U 23028AK  24058.38331953 -.00000782  00000-0 -57788-4 0  9995,2 55774  69.9990 293.5115 0002777 269.2170  90.8671 14.98327740 55497,6950.2,96.107,573.995,570.135,0.0
55774.0,STARLINK-5812,PAYLOAD,2024-02-27 20:24:55,14.98328961,0.0002863,69.9987,292.3331,269.0928,90.9903,-2.6526e-05,-4.09e-06,0.0,0 STARLINK-5812,1 55774U 23028AK  24058.85063773 -.00000409  00000-0 -26526-4 0  9991,2 55774  69.9987 292.3331 0002863 269.0928  90.9903 14.98328961 55568,6950.196,96.107,574.051,570.071,0.0
55774.0,STARLINK-5812,PAYLOAD,2024-02-27 22:01:03,14.98329977,0.0002902,69.9985,292.1644,268.0964,91.9862,-4.503e-05,-6.3e-06,0.0,0 STARLINK-5812,1 55774U 23028AK  24058.91739754 -.00000630  00000-0 -45030-4 0  9994,2 55774  69.9985 292.1644 0002902 268.0964  91.9862 14.98329977 55578,6950.193,96.107,574.075,570.041,0.0
55774.0,STARLINK-5812,PAYLOAD,2024-02-28 09:13:59,14.98327891,0.0002977,69.9981,290.9856,267.0126,93.0692,3.8388e-05,3.65e-06,0.0,0 STARLINK-5812,1 55774U 23028AK  24059.38471614  .00000365  00000-0  38388-4 0  9995,2 55774  69.9981 290.9856 0002977 267.0126  93.0692 14.98327891 55641,6950.199,96.107,574.133,569.995,0.0
55774.0,STARLINK-5812,PAYLOAD,2024-02-28 20:26:55,14.98328093,0.0002984,69.9981,289.8073,267.2332,92.8485,6.4382e-05,6.75e-06,0.0,0 STARLINK-5812,1 55774U 23028AK  24059.85203568  .00000675  00000-0  64382-4 0  9995,2 55774  69.9981 289.8073 0002984 267.2332  92.8485 14.98328093 55718,6950.199,96.107,574.138,569.99,0.0
55774.0,STARLINK-5812,PAYLOAD,2024-02-28 22:03:03,14.983281,0.0002985,69.9981,289.639,267.2223,92.8594,6.313e-05,6.6e-06,0.0,0 STARLINK-5812,1 55774U 23028AK  24059.91879578  .00000660  00000-0  63130-4 0  9996,2 55774  69.9981 289.6390 0002985 267.2223  92.8594 14.98328100 55729,6950.199,96.107,574.138,569.989,0.0
55774.0,STARLINK-5812,PAYLOAD,2024-02-29 01:15:19,14.98329956,0.0002986,69.9981,289.3025,267.7246,92.3571,7.9991e-05,8.62e-06,0.0,0 STARLINK-5812,1 55774U 23028AK  24060.05231419  .00000862  00000-0  79991-4 0  9995,2 55774  69.9981 289.3025 0002986 267.7246  92.3571 14.98329956 55744,6950.193,96.107,574.133,569.983,0.0
55774.0,STARLINK-5812,PAYLOAD,2024-02-29 22:05:05,14.9832885,0.0002927,69.9984,287.1141,268.5608,91.5216,-6.8152e-06,-1.74e-06,0.0,0 STARLINK-5812,1 55774U 23028AK  24060.92019790 -.00000174  00000-0 -68152-5 0  9993,2 55774  69.9984 287.1141 0002927 268.5608  91.5216 14.98328850 55871,6950.196,96.107,574.096,570.027,0.0
55774.0,STARLINK-5812,PAYLOAD,2024-03-01 01:17:21,14.98328896,0.0002945,69.9984,286.7776,268.8582,91.2239,-8.2588e-06,-1.92e-06,0.0,0 STARLINK-5812,1 55774U 23028AK  24061.05371799 -.00000192  00000-0 -82588-5 0  9997,2 55774  69.9984 286.7776 0002945 268.8582  91.2239 14.98328896 55898,6950.196,96.107,574.108,570.014,0.0
55774.0,STARLINK-5812,PAYLOAD,2024-03-01 14:06:25,14.98332417,0.0002958,69.9983,285.4309,268.9052,91.1769,1.3135e-05,6.4e-07,0.0,0 STARLINK-5812,1 55774U 23028AK  24061.58779473  .00000064  00000-0  13135-4 0  9993,2 55774  69.9983 285.4309 0002958 268.9052  91.1769 14.98332417 55972,6950.185,96.107,574.106,569.995,0.0
55774.0,STARLINK-5812,PAYLOAD,2024-03-01 22:07:05,14.98335341,0.0002953,69.9982,284.5892,269.1479,90.9342,3.5964e-05,3.36e-06,0.0,0 STARLINK-5812,1 55774U 23028AK  24061.92159134  .00000336  00000-0  35964-4 0  9993,2 55774  69.9982 284.5892 0002953 269.1479  90.9342 14.98335341 56029,6950.176,96.107,574.094,569.989,0.0
55774.0,STARLINK-5812,PAYLOAD,2024-03-02 01:19:21,14.98336269,0.0002943,69.9982,284.2525,269.2661,90.8161,4.5798e-05,4.54e-06,0.0,0 STARLINK-5812,1 55774U 23028AK  24062.05510997  .00000454  00000-0  45798-4 0  9993,2 55774  69.9982 284.2525 0002943 269.2661  90.8161 14.98336269 56042,6950.174,96.107,574.084,569.993,0.0
55774.0,STARLINK-5812,PAYLOAD,2024-03-02 20:32:58,14.98328515,0.0002939,69.9981,282.2327,268.0095,92.0727,-9.1397e-07,-1.04e-06,0.0,0 STARLINK-5812,1 55774U 23028AK  24062.85623460 -.00000104  00000-0 -91397-6 0  9993,2 55774  69.9981 282.2327 0002939 268.0095  92.0727 14.98328515 56162,6950.197,96.107,574.105,570.02,0.0
55774.0,STARLINK-5812,PAYLOAD,2024-03-02 22:09:06,14.98329285,0.0002931,69.998,282.0643,267.9535,92.1288,7.1343e-06,-8e-08,0.0,0 STARLINK-5812,1 55774U 23028AK  24062.92299386 -.00000008  00000-0  71343-5 0  9997,2 55774  69.9980 282.0643 0002931 267.9535  92.1288 14.98329285 56178,6950.195,96.107,574.097,570.023,0.0
55774.0,STARLINK-5812,PAYLOAD,2024-03-03 14:10:27,14.98330604,0.00028,69.9981,280.3812,264.1647,95.9193,-5.8895e-05,-7.96e-06,0.0,0 STARLINK-5812,1 55774U 23028AK  24063.59059476 -.00000796  00000-0 -58895-4 0  9996,2 55774  69.9981 280.3812 0002800 264.1647  95.9193 14.98330604 56270,6950.191,96.107,574.002,570.11,0.0
55774.0,STARLINK-5812,PAYLOAD,2024-03-03 20:34:59,14.98330389,0.000277,69.9982,279.7077,259.059,101.0257,-5.2317e-05,-7.17e-06,0.0,0 STARLINK-5812,1 55774U 23028AK  24063.85763416 -.00000717  00000-0 -52317-4 0  9997,2 55774  69.9982 279.7077 0002770 259.0590 101.0257 14.98330389 56317,6950.192,96.107,573.982,570.131,0.0
55774.0,STARLINK-5812,PAYLOAD,2024-03-04 14:12:27,14.9832998,0.0003017,69.9975,277.855,269.9746,90.1067,5.4276e-05,5.55e-06,0.0,0 STARLINK-5812,1 55774U 23028AK  24064.59199041  .00000555  00000-0  54276-4 0  9990,2 55774  69.9975 277.8550 0003017 269.9746  90.1067 14.98329980 56426,6950.193,96.107,574.155,569.961,0.0
55774.0,STARLINK-5812,PAYLOAD,2024-03-04 20:37:00,14.9833144,0.0002928,69.9976,277.1816,268.974,91.1084,3.2857e-05,2.99e-06,0.0,0 STARLINK-5812,1 55774U 23028AK  24064.85902993  .00000299  00000-0  32857-4 0  9993,2 55774  69.9976 277.1816 0002928 268.9740  91.1084 14.98331440 56466,6950.188,96.107,574.088,570.018,0.0
55774.0,STARLINK-5812,PAYLOAD,2024-03-04 22:13:08,14.98327827,0.0002939,69.9977,277.0132,268.5938,91.4885,7.9791e-05,8.59e-06,0.0,0 STARLINK-5812,1 55774U 23028AK  24064.92579089  .00000859  00000-0  79791-4 0  9997,2 55774  69.9977 277.0132 0002939 268.5938  91.4885 14.98327827 56471,6950.2,96.107,574.107,570.022,0.0
55774.0,STARLINK-5812,PAYLOAD,2024-03-05 14:14:29,14.98328418,0.0002934,69.9977,275.3298,269.238,90.8443,-1.1205e-05,-2.27e-06,0.0,0 STARLINK-5812,1 55774U 23028AK  24065.59339302 -.00000227  00000-0 -11205-4 0  9990,2 55774  69.9977 275.3298 0002934 269.2380  90.8443 14.98328418 56570,6950.198,96.107,574.102,570.024,0.0
55774.0,STARLINK-5812,PAYLOAD,2024-03-05 20:39:01,14.98327376,0.0002956,69.9978,274.6564,269.2421,90.8399,-2.0716e-05,-3.4e-06,0.0,0 STARLINK-5812,1 55774U 23028AK  24065.86043406 -.00000340  00000-0 -20716-4 0  9990,2 55774  69.9978 274.6564 0002956 269.2421  90.8399 14.98327376 56616,6950.201,96.107,574.12,570.012,0.0
